1 41240U 16002A   20145.69560036 -.00000048 +00000-0 +57574-4 0  9992
2 41240 066.0428 054.4922 0008139 270.9475 089.0608 12.80929689203516
1 41240U 16002A   20146.00790420 -.00000047  00000-0  58868-4 0  9996
2 41240  66.0428  53.8436 0008136 270.9391  89.0692 12.80929684203555
1 41240U 16002A   20147.41327143 -.00000050 +00000-0 +47422-4 0  9998
2 41240 066.0429 050.9247 0008111 270.7648 089.2437 12.80929704203732
1 41240U 16002A   20148.42825884 -.00000045  00000-0  67460-4 0  9993
2 41240  66.0429  48.8167 0008095 270.6905  89.3182 12.80929757203865
1 41240U 16002A   20149.83362597 -.00000033  00000-0  12329-3 0  9996
2 41240  66.0429  45.8979 0008073 270.6628  89.3462 12.80929869204047
1 41240U 16002A   20150.45823355 -.00000041 +00000-0 +86673-4 0  9993
2 41240 066.0430 044.6006 0008060 270.6556 089.3535 12.80929878204123
1 41240U 16002A   20151.16091709 -.00000047  00000-0  59831-4 0  9994
2 41240  66.0430  43.1412 0008052 270.6088  89.4005 12.80929874204218
1 41240U 16002A   20152.56628406 -.00000043 +00000-0 +78926-4 0  9991
2 41240 066.0429 040.2223 0008034 270.5054 089.5041 12.80929974204397
1 41240U 16002A   20153.34704347 -.00000047  00000-0  61687-4 0  9997
2 41240  66.0429  38.6006 0008022 270.4589  89.5507 12.80929991204493
1 41240U 16002A   20154.44010663 -.00000045  00000-0  68149-4 0  9998
2 41240  66.0428  36.3303 0008007 270.3539  89.6559 12.80930035204639
1 41240U 16002A   20155.61124577 -.00000043 +00000-0 +77879-4 0  9996
2 41240 066.0427 033.8979 0007990 270.2157 089.7942 12.80930058204782
1 41240U 16002A   20156.47008103 -.00000037 +00000-0 +10260-3 0  9990
2 41240 066.0427 032.1140 0007982 270.1758 089.8342 12.80930112204899
1 41240U 16002A   20157.32891625 -.00000028  00000-0  14252-3 0  9999
2 41240  66.0427  30.3301 0007972 270.1271  89.8831 12.80930174205002
1 41240U 16002A   20158.42197926 -.00000033  00000-0  11997-3 0  9993
2 41240  66.0425  28.0598 0007965 270.0162  89.9941 12.80930199205147
1 41240U 16002A   20159.59311803 -.00000011 +00000-0 +21605-3 0  9997
2 41240 066.0424 025.6273 0007955 269.9242 090.0862 12.80930367205292
1 41240U 16002A   20160.29580132 -.00000045  00000-0  71569-4 0  9991
2 41240  66.0424  24.1678 0007944 269.8455  90.1650 12.80930288205386
1 41240U 16002A   20161.38886414 -.00000049  00000-0  51484-4 0  9992
2 41240  66.0424  21.8975 0007931 269.6867  90.3240 12.80930343205526
1 41240U 16002A   20162.24769920 -.00000056  00000-0  22171-4 0  9999
2 41240  66.0423  20.1136 0007926 269.6157  90.3950 12.80930345205634
1 41240U 16002A   20163.26268603 -.00000046 +00000-0 +64075-4 0  9992
2 41240 066.0422 018.0054 0007919 269.5306 090.4802 12.80930417205766
1 41240U 16002A   20164.35574876 -.00000045 +00000-0 +69514-4 0  9997
2 41240 066.0421 015.7350 0007910 269.4048 090.6061 12.80930461205905
1 41240U 16002A   20165.52688743 -.00000045  00000-0  67404-4 0  9992
2 41240  66.0420  13.3024 0007904 269.2559  90.7550 12.80930487206053
1 41240U 16002A   20166.22957065 -.00000047 +00000-0 +59984-4 0  9992
2 41240 066.0420 011.8428 0007896 269.2533 090.7577 12.80930480206148
1 41240U 16002A   20167.40070927 -.00000047  00000-0  63044-4 0  9998
2 41240  66.0420   9.4102 0007890 269.1237  90.8875 12.80930504206299
1 41240U 16002A   20168.18146832 -.00000046 +00000-0 +65109-4 0  9996
2 41240 066.0419 007.7884 0007888 269.0314 090.9797 12.80930516206395
1 41240U 16002A   20169.35260688 -.00000035  00000-0  11512-3 0  9998
2 41240  66.0419   5.3558 0007882 268.9337  91.0775 12.80930583206543
1 41240U 16002A   20170.36759349 -.00000034  00000-0  11649-3 0  9998
2 41240  66.0418   3.2475 0007879 268.8444  91.1668 12.80930653206675
1 41240U 16002A   20171.53873189 -.00000039 +00000-0 +95332-4 0  9994
2 41240 066.0418 000.8149 0007876 268.7197 091.2916 12.80930686206827
1 41240U 16002A   20172.16333902 -.00000051  00000-0  42116-4 0  9994
2 41240  66.0418 359.5175 0007877 268.6453  91.3660 12.80930677206901
1 41240U 16002A   20173.41255324 -.00000054  00000-0  29564-4 0  9999
2 41240  66.0418 356.9228 0007873 268.5540  91.4574 12.80930716207060
1 41240U 16002A   20174.19331210 -.00000060 +00000-0 +24130-5 0  9996
2 41240 066.0418 355.3010 0007874 268.4802 091.5311 12.80930716207164
1 41240U 16002A   20175.20829867 -.00000059 +00000-0 +10558-4 0  9995
2 41240 066.0418 353.1927 0007876 268.3803 091.6310 12.80930730207299
1 41240U 16002A   20176.45751289 -.00000063  00000-0 -96216-5 0  9997
2 41240  66.0417 350.5979 0007876 268.2293  91.7820 12.80930747207451
1 41240U 16002A   20177.55057528 -.00000055 +00000-0 +27594-4 0  9996
2 41240 066.0417 348.3274 0007878 268.1036 091.9077 12.80930792207591
1 41240U 16002A   20178.48748599 -.00000055  00000-0  24947-4 0  9993
2 41240  66.0417 346.3812 0007879 268.0344  91.9769 12.80930774207711
1 41240U 16002A   20179.11209306 -.00000043 +00000-0 +76096-4 0  9991
2 41240 066.0417 345.0838 0007885 267.9857 092.0255 12.80930816207796
1 41240U 16002A   20180.12707954 -.00000046 +00000-0 +63725-4 0  9994
2 41240 066.0417 342.9755 0007890 267.8860 092.1252 12.80930837207925
1 41240U 16002A   20181.14206597 -.00000042 +00000-0 +83977-4 0  9991
2 41240 066.0418 340.8671 0007898 267.8056 092.2055 12.80930876208055
1 41240U 16002A   20182.07897652 -.00000033  00000-0  12347-3 0  9994
2 41240  66.0419 338.9211 0007906 267.6940  92.3170 12.80930926208172
1 41240U 16002A   20183.09396290 -.00000049  00000-0  50613-4 0  9995
2 41240  66.0419 336.8129 0007910 267.6326  92.3783 12.80930932208302
1 41240U 16002A   20184.10894927 -.00000055  00000-0  24917-4 0  9993
2 41240  66.0420 334.7046 0007912 267.5759  92.4351 12.80930936208430
1 41240U 16002A   20185.20201151 -.00000056 +00000-0 +21733-4 0  9990
2 41240 066.0420 332.4343 0007921 267.4650 092.5459 12.80930960208576
1 41240U 16002A   20186.45122542 -.00000064  00000-0 -13891-4 0  9990
2 41240  66.0420 329.8396 0007933 267.3291  92.6816 12.80930992208738
1 41240U 16002A   20187.38813590 -.00000064  00000-0 -12618-4 0  9999
2 41240  66.0420 327.8936 0007940 267.2956  92.7150 12.80931004208851
1 41240U 16002A   20188.40312229 -.00000056  00000-0  22034-4 0  9999
2 41240  66.0421 325.7854 0007949 267.2201  92.7905 12.80931022208982
1 41240U 16002A   20189.41810862 -.00000049  00000-0  50044-4 0  9991
2 41240  66.0421 323.6772 0007960 267.1484  92.8620 12.80931062209118
1 41240U 16002A   20190.51117078 -.00000041  00000-0  87379-4 0  9996
2 41240  66.0422 321.4069 0007973 267.0759  92.9343 12.80931111209255
1 41240U 16002A   20191.44808122 -.00000037  00000-0  10258-3 0  9992
2 41240  66.0422 319.4609 0007984 266.9967  93.0134 12.80931137209374
1 41240U 16002A   20192.46306748 -.00000035  00000-0  11240-3 0  9992
2 41240  66.0422 317.3527 0007994 266.9338  93.0762 12.80931176209508
1 41240U 16002A   20193.55612948 -.00000029  00000-0  14000-3 0  9995
2 41240  66.0423 315.0825 0008006 266.8697  93.1402 12.80931263209641
1 41240U 16002A   20194.33688805 -.00000040 +00000-0 +90403-4 0  9992
2 41240 066.0423 313.4609 0008013 266.8253 093.1846 12.80931271209741
1 41240U 16002A   20195.58610165 -.00000035 +00000-0 +11444-3 0  9995
2 41240 066.0423 310.8663 0008034 266.7413 093.2683 12.80931363209902
1 41240U 16002A   20196.13263261 -.00000051  00000-0  45519-4 0  9997
2 41240  66.0422 309.7312 0008040 266.7174  93.2922 12.80931343209971
1 41240U 16002A   20197.14761860 -.00000055  00000-0  25674-4 0  9991
2 41240  66.0422 307.6232 0008048 266.6808  93.3287 12.80931388210101
1 41240U 16002A   20198.16260463 -.00000054  00000-0  31938-4 0  9996
2 41240  66.0421 305.5151 0008062 266.6243  93.3850 12.80931418210230
1 41240U 16002A   20199.41181819 -.00000061  00000-0 -11112-5 0  9994
2 41240  66.0420 302.9206 0008077 266.5350  93.4741 12.80931421210396
1 41240U 16002A   20200.50488008 -.00000059  00000-0  94759-5 0  9991
2 41240  66.0419 300.6504 0008091 266.4673  93.5417 12.80931426210535
1 41240U 16002A   20201.59794204 -.00000048 +00000-0 +57184-4 0  9997
2 41240 066.0418 298.3801 0008105 266.4108 093.5980 12.80931426210676
1 41240U 16002A   20202.45677632 -.00000057  00000-0  17407-4 0  9992
2 41240  66.0406 296.5962 0008108 266.4442  93.5645 12.80931409210786
1 41240U 16002A   20203.47176228 -.00000052 +00000-0 +41203-4 0  9996
2 41240 066.0405 294.4881 0008123 266.4007 093.6079 12.80931440210918
1 41240U 16002A   20204.56482428 -.00000028 +00000-0 +14259-3 0  9992
2 41240 066.0415 292.2179 0008143 266.2995 093.7089 12.80931483211056
1 41240U 16002A   20205.03327917 -.00000058  00000-0  13676-4 0  9992
2 41240  66.0403 291.2448 0008138 266.3609  93.6475 12.80931414211117
1 41240U 16002A   20206.43864530 -.00000043  00000-0  77194-4 0  9993
2 41240  66.0402 288.3260 0008157 266.3756  93.6327 12.80929220211296
1 41240U 16002A   20207.21940504 -.00000050 +00000-0 +48398-4 0  9998
2 41240 066.0412 286.7044 0008163 266.2766 093.7316 12.80929359211399
1 41240U 16002A   20208.46862051 -.00000058  00000-0  11894-4 0  9995
2 41240  66.0410 284.1098 0008176 266.2380  93.7700 12.80929364211555
1 41240U 16002A   20209.48360801 -.00000063  00000-0 -99125-5 0  9995
2 41240  66.0408 282.0017 0008196 266.2119  93.7959 12.80929397211688
1 41240U 16002A   20210.49859554 -.00000060  00000-0  31893-5 0  9990
2 41240  66.0406 279.8936 0008207 266.1849  93.8228 12.80929419211812
1 41240U 16002A   20211.20127947 -.00000053 +00000-0 +33396-4 0  9995
2 41240 066.0395 278.4339 0008202 266.2075 093.8002 12.80929377211901
1 41240U 16002A   20212.52857075 -.00000049 +00000-0 +50591-4 0  9994
2 41240 066.0402 275.6773 0008231 266.1530 093.8544 12.80929429212076
1 41240U 16002A   20213.54355832 -.00000045 +00000-0 +71470-4 0  9996
2 41240 066.0400 273.5691 0008242 266.1407 093.8666 12.80929445212203
1 41240U 16002A   20214.09009010 -.00000046  00000-0  64153-4 0  9992
2 41240  66.0400 272.4339 0008247 266.1527  93.8545 12.80929445212271
1 41240U 16002A   20215.18315364 -.00000038 +00000-0 +10159-3 0  9992
2 41240 066.0398 270.1635 0008256 266.1262 093.8809 12.80929472212416
